[{"OBJECT_NAME":"STARLINK-31467","OBJECT_ID":"2024-049E","EPOCH":"2026-03-09T12:58:14.447136","MEAN_MOTION":15.27573653,"ECCENTRICITY":0.0001386,"INCLINATION":43.0021,"RA_OF_ASC_NODE":144.3464,"ARG_OF_PERICENTER":274.4787,"MEAN_ANOMALY":85.5906,"EPHEMERIS_TYPE":0,"CLASSIFICATION_TYPE":"U","NORAD_CAT_ID":59235,"ELEMENT_SET_NO":999,"REV_AT_EPOCH":11238,"BSTAR":-1.1233792e-5,"MEAN_MOTION_DOT":-5.71e-6,"MEAN_MOTION_DDOT":0},{"OBJECT_NAME":"COSMOS 249 DEB","OBJECT_ID":"1968-091DJ","EPOCH":"2026-03-09T22:59:41.072064","MEAN_MOTION":14.2447733,"ECCENTRICITY":0.04678273,"INCLINATION":62.7651,"RA_OF_ASC_NODE":269.2895,"ARG_OF_PERICENTER":43.0913,"MEAN_ANOMALY":320.579,"EPHEMERIS_TYPE":0,"CLASSIFICATION_TYPE":"U","NORAD_CAT_ID":19362,"ELEMENT_SET_NO":999,"REV_AT_EPOCH":90582,"BSTAR":0.0013749035,"MEAN_MOTION_DOT":0.00010099,"MEAN_MOTION_DDOT":0}]
